{
  "norad_id": 47135,
  "name": "STARLINK-1845",
  "history": [
    {
      "epoch": "2026-03-28T22:00:01.999584Z",
      "apogee_km": 395.7050385080229,
      "perigee_km": 387.6742639447384,
      "latitude_deg": -52.8275329745647,
      "longitude_deg": -52.66307696730315,
      "height_km": 408.7617442553664,
      "semi_major_axis_km": 6769.826651226381,
      "eccentricity": 0.00059313,
      "inclination_deg": 53.0506,
      "raan_deg": 184.2176,
      "arg_perigee_deg": 347.48,
      "mean_anomaly_deg": 288.3165,
      "mean_motion_rev_day": 15.58606344
    },
    {
      "epoch": "2026-03-28T23:53:59.341344Z",
      "apogee_km": 395.7277367711731,
      "perigee_km": 387.7054602569342,
      "latitude_deg": 4.426046646597079e-05,
      "longitude_deg": -1.0726890677596883,
      "height_km": 388.69483042428396,
      "semi_major_axis_km": 6769.853598514053,
      "eccentricity": 0.0005925,
      "inclination_deg": 53.0512,
      "raan_deg": 183.8328,
      "arg_perigee_deg": 347.9071,
      "mean_anomaly_deg": 12.1798,
      "mean_motion_rev_day": 15.58597038
    },
    {
      "epoch": "2026-03-29T22:58:56.101728Z",
      "apogee_km": 395.14836104864935,
      "perigee_km": 386.8412824769821,
      "latitude_deg": 3.1352047230710846e-05,
      "longitude_deg": 7.067338305431543,
      "height_km": 387.78112922698955,
      "semi_major_axis_km": 6769.131821762815,
      "eccentricity": 0.0006136,
      "inclination_deg": 53.0511,
      "raan_deg": 179.1573,
      "arg_perigee_deg": 352.0607,
      "mean_anomaly_deg": 8.0307,
      "mean_motion_rev_day": 15.58846329
    },
    {
      "epoch": "2026-03-30T00:00:02.000160Z",
      "apogee_km": 395.06085222249385,
      "perigee_km": 386.8005589013974,
      "latitude_deg": -43.022411181671536,
      "longitude_deg": -144.18557018384755,
      "height_km": 406.94275720806013,
      "semi_major_axis_km": 6769.067705561945,
      "eccentricity": 0.00061015,
      "inclination_deg": 53.0506,
      "raan_deg": 178.9504,
      "arg_perigee_deg": 351.3333,
      "mean_anomaly_deg": 247.0035,
      "mean_motion_rev_day": 15.58868477
    },
    {
      "epoch": "2026-03-30T14:00:03.000384Z",
      "apogee_km": 394.8332254330817,
      "perigee_km": 386.1172834330491,
      "latitude_deg": -53.0183611788098,
      "longitude_deg": 54.7840081119126,
      "height_km": 408.1669303364182,
      "semi_major_axis_km": 6768.612254433066,
      "eccentricity": 0.00064385,
      "inclination_deg": 53.0505,
      "raan_deg": 176.1154,
      "arg_perigee_deg": 354.6373,
      "mean_anomaly_deg": 279.4564,
      "mean_motion_rev_day": 15.59025821
    },
    {
      "epoch": "2026-03-30T22:00:00.999936Z",
      "apogee_km": 394.43902657444596,
      "perigee_km": 385.8253211276524,
      "latitude_deg": -11.354283259891908,
      "longitude_deg": 7.5488665989049695,
      "height_km": 388.9377952508624,
      "semi_major_axis_km": 6768.269173851048,
      "eccentricity": 0.00063633,
      "inclination_deg": 53.0506,
      "raan_deg": 174.4928,
      "arg_perigee_deg": 354.8091,
      "mean_anomaly_deg": 351.1253,
      "mean_motion_rev_day": 15.59144362
    },
    {
      "epoch": "2026-03-31T20:00:01.999008Z",
      "apogee_km": 393.98086750144375,
      "perigee_km": 384.90283722888125,
      "latitude_deg": 52.96145700541553,
      "longitude_deg": 138.42847840662972,
      "height_km": 396.406553479219,
      "semi_major_axis_km": 6767.578852365163,
      "eccentricity": 0.0006707,
      "inclination_deg": 53.0507,
      "raan_deg": 170.0333,
      "arg_perigee_deg": 358.2736,
      "mean_anomaly_deg": 96.2355,
      "mean_motion_rev_day": 15.59382927
    },
    {
      "epoch": "2026-04-01T09:26:24.615744Z",
      "apogee_km": 393.65033923738883,
      "perigee_km": 384.4753696747184,
      "latitude_deg": 5.471753082848239e-06,
      "longitude_deg": -164.05236787478304,
      "height_km": 385.3747209820749,
      "semi_major_axis_km": 6767.199854456054,
      "eccentricity": 0.0006779,
      "inclination_deg": 53.0503,
      "raan_deg": 167.3072,
      "arg_perigee_deg": 359.7113,
      "mean_anomaly_deg": 0.3894,
      "mean_motion_rev_day": 15.59513929
    },
    {
      "epoch": "2026-04-02T20:00:01.999008Z",
      "apogee_km": 392.7006622147401,
      "perigee_km": 383.1645637022357,
      "latitude_deg": 7.618732618514777,
      "longitude_deg": -156.62993618538616,
      "height_km": 392.7789653399455,
      "semi_major_axis_km": 6766.069612958488,
      "eccentricity": 0.0007047,
      "inclination_deg": 53.0498,
      "raan_deg": 160.2969,
      "arg_perigee_deg": 4.9063,
      "mean_anomaly_deg": 165.4828,
      "mean_motion_rev_day": 15.5990471
    },
    {
      "epoch": "2026-04-02T22:00:01.999584Z",
      "apogee_km": 392.7021601935494,
      "perigee_km": 383.1771481228916,
      "latitude_deg": -52.372188389116815,
      "longitude_deg": -77.38004849731382,
      "height_km": 405.83317867427064,
      "semi_major_axis_km": 6766.07665415822,
      "eccentricity": 0.00070388,
      "inclination_deg": 53.05,
      "raan_deg": 159.8906,
      "arg_perigee_deg": 5.4293,
      "mean_anomaly_deg": 273.1928,
      "mean_motion_rev_day": 15.59902275
    },
    {
      "epoch": "2026-04-03T20:00:01.999008Z",
      "apogee_km": 391.9525086767426,
      "perigee_km": 382.1686799158715,
      "latitude_deg": 23.432865034199978,
      "longitude_deg": 42.171860532848726,
      "height_km": 383.29429395458214,
      "semi_major_axis_km": 6765.197594296306,
      "eccentricity": 0.0007231,
      "inclination_deg": 53.0497,
      "raan_deg": 155.4256,
      "arg_perigee_deg": 8.4625,
      "mean_anomaly_deg": 21.2677,
      "mean_motion_rev_day": 15.60206322
    },
    {
      "epoch": "2026-04-04T03:33:38.356704Z",
      "apogee_km": 391.73297060759614,
      "perigee_km": 381.78640770759375,
      "latitude_deg": 4.55201778393509e-06,
      "longitude_deg": -91.99159310395335,
      "height_km": 382.748600813618,
      "semi_major_axis_km": 6764.896689157595,
      "eccentricity": 0.00073516,
      "inclination_deg": 53.0497,
      "raan_deg": 153.8907,
      "arg_perigee_deg": 9.2158,
      "mean_anomaly_deg": 350.8988,
      "mean_motion_rev_day": 15.60310421
    },
    {
      "epoch": "2026-04-05T14:00:03.000384Z",
      "apogee_km": 390.6084784212353,
      "perigee_km": 380.3745673758085,
      "latitude_deg": 26.05136646076029,
      "longitude_deg": -98.45138487518983,
      "height_km": 390.0487116374171,
      "semi_major_axis_km": 6763.628522898522,
      "eccentricity": 0.00075654,
      "inclination_deg": 53.0489,
      "raan_deg": 146.8962,
      "arg_perigee_deg": 14.3707,
      "mean_anomaly_deg": 132.3303,
      "mean_motion_rev_day": 15.60749274
    },
    {
      "epoch": "2026-04-05T20:00:03.000384Z",
      "apogee_km": 390.2307450782282,
      "perigee_km": 380.14121985298607,
      "latitude_deg": 47.818206374601246,
      "longitude_deg": 135.8937695615156,
      "height_km": 391.0908643278711,
      "semi_major_axis_km": 6763.322982465606,
      "eccentricity": 0.0007459,
      "inclination_deg": 53.049,
      "raan_deg": 145.6753,
      "arg_perigee_deg": 15.3765,
      "mean_anomaly_deg": 96.8578,
      "mean_motion_rev_day": 15.60855038
    }
  ]
}